{
  "norad_id": 62424,
  "name": "STARLINK-32638",
  "history": [
    {
      "epoch": "2026-03-28T16:19:05.618496Z",
      "apogee_km": 483.7675331995115,
      "perigee_km": 482.18947663338076,
      "latitude_deg": -6.280196662200287e-05,
      "longitude_deg": 147.58202100631786,
      "height_km": 482.97068186122516,
      "semi_major_axis_km": 6861.115504916445,
      "eccentricity": 0.000115,
      "inclination_deg": 43.0025,
      "raan_deg": 218.4524,
      "arg_perigee_deg": 254.1521,
      "mean_anomaly_deg": 105.9203,
      "mean_motion_rev_day": 15.27603575
    },
    {
      "epoch": "2026-03-29T01:44:01.950720Z",
      "apogee_km": 483.7017637791614,
      "perigee_km": 482.27327765394784,
      "latitude_deg": -5.831985552329918e-06,
      "longitude_deg": 3.7477771509627225,
      "height_km": 482.46613851950593,
      "semi_major_axis_km": 6861.124520716555,
      "eccentricity": 0.0001041,
      "inclination_deg": 42.9989,
      "raan_deg": 216.2395,
      "arg_perigee_deg": 294.6253,
      "mean_anomaly_deg": 65.449,
      "mean_motion_rev_day": 15.27600564
    },
    {
      "epoch": "2026-03-30T01:16:21.745344Z",
      "apogee_km": 483.8153994290069,
      "perigee_km": 482.031523708999,
      "latitude_deg": -2.8086630259987532e-05,
      "longitude_deg": 4.161170881096815,
      "height_km": 482.3989516024892,
      "semi_major_axis_km": 6861.060461569003,
      "eccentricity": 0.00013,
      "inclination_deg": 43.0036,
      "raan_deg": 210.7021,
      "arg_perigee_deg": 289.7572,
      "mean_anomaly_deg": 70.3139,
      "mean_motion_rev_day": 15.27621958
    },
    {
      "epoch": "2026-03-30T01:16:21.746208Z",
      "apogee_km": 483.815468039611,
      "perigee_km": 482.03145509839396,
      "latitude_deg": 4.126398527265518e-05,
      "longitude_deg": 4.161241220387495,
      "height_km": 482.3989195146064,
      "semi_major_axis_km": 6861.060461569003,
      "eccentricity": 0.00013001,
      "inclination_deg": 43.0036,
      "raan_deg": 210.7021,
      "arg_perigee_deg": 289.7573,
      "mean_anomaly_deg": 70.3139,
      "mean_motion_rev_day": 15.27621958
    },
    {
      "epoch": "2026-03-30T09:07:08.810976Z",
      "apogee_km": 483.93071928451354,
      "perigee_km": 482.2195329802562,
      "latitude_deg": 9.61379301154987e-06,
      "longitude_deg": -115.70503583053708,
      "height_km": 482.99786424645157,
      "semi_major_axis_km": 6861.212126132385,
      "eccentricity": 0.0001247,
      "inclination_deg": 43.0026,
      "raan_deg": 208.8542,
      "arg_perigee_deg": 260.1809,
      "mean_anomaly_deg": 99.8902,
      "mean_motion_rev_day": 15.27571307
    },
    {
      "epoch": "2026-03-30T16:57:55.755648Z",
      "apogee_km": 483.792035138913,
      "perigee_km": 482.25252821929007,
      "latitude_deg": 3.9527285994011015e-05,
      "longitude_deg": 124.43035453732155,
      "height_km": 482.8560208141863,
      "semi_major_axis_km": 6861.159281679101,
      "eccentricity": 0.00011219,
      "inclination_deg": 43.0012,
      "raan_deg": 207.0074,
      "arg_perigee_deg": 265.7418,
      "mean_anomaly_deg": 94.3306,
      "mean_motion_rev_day": 15.27588955
    }
  ]
}